0 IRIDIUM 33 DEB
1 34654U 97051KF  13282.39863432  .00037012  00000-0  80409-2 0  9589
2 34654 086.4486 141.2022 0025241 292.3610 119.1790 14.57669154240393
0 IRIDIUM 33 DEB
1 34654U 97051KF  13283.09852613  .00028047  00000-0  60970-2 0  9596
2 34654 086.4489 140.9027 0024976 289.9066 192.0512 14.57699070240503
0 IRIDIUM 33 DEB
1 34654U 97051KF  13283.55577700  .00043882  00000-0  95838-2 0  9616
2 34654 086.4471 140.6981 0025791 286.3726 073.5136 14.57692381240570
0 IRIDIUM 33 DEB
1 34654U 97051KF  13283.98838652  .00026888  00000-0  58426-2 0  9607
2 34654 086.4497 140.5221 0024612 286.8348 181.9046 14.57730815240636
0 IRIDIUM 33 DEB
1 34654U 97051KF  13285.36393697  .00022878  00000-0  49679-2 0  9612
2 34654 086.4503 139.9333 0024188 281.6077 201.2837 14.57787840240836
0 IRIDIUM 33 DEB
1 34654U 97051KF  13287.76790034  .00033423  00000-0  72335-2 0  9628
2 34654 086.4500 138.9047 0023675 272.5031 218.7801 14.57892139241184
0 IRIDIUM 33 DEB
1 34654U 97051KF  13289.82629303  .00036258  00000-0  78259-2 0  9638
2 34654 086.4494 138.0242 0023169 264.5176 223.5898 14.58006279241489
0 IRIDIUM 33 DEB
1 34654U 97051KF  13290.36136992  .00034105  00000-0  73601-2 0  9642
2 34654 086.4493 137.7952 0022930 262.5247 152.3270 14.58029094241555
0 IRIDIUM 33 DEB
1 34654U 97051KF  13291.32315233  .00027599  00000-0  59550-2 0  9653
2 34654 086.4489 137.3835 0022783 258.6334 161.3729 14.58078111241693
0 IRIDIUM 33 DEB
1 34654U 97051KF  13292.77735212  .00026072  00000-0  56192-2 0  9661
2 34654 086.4487 136.7610 0022439 252.8956 235.5885 14.58142968241913
0 IRIDIUM 33 DEB
1 34654U 97051KF  13294.76738722  .00033835  00000-0  72727-2 0  9679
2 34654 086.4490 135.9094 0022245 244.9632 243.4373 14.58225519242209
0 IRIDIUM 33 DEB
1 34654U 97051KF  13296.00696228  .00031558  00000-0  67762-2 0  9686
2 34654 086.4492 135.3782 0022155 240.3143 271.3316 14.58288382242389
